SCS-01 D                
1 63985U 25100D   26068.75607686  .00032471  00000+0  10528-2 0  9990
2 63985  97.3730 145.4097 0006346 266.2302  93.8214 15.31902149 45621
STARLINK-35027          
1 65466U 25195J   26068.76137784  .00012303  00000+0  42683-3 0  9998
2 65466  53.1585 257.9192 0001425 129.1646 230.9482 15.30200090 30003
